{
  "type": "FeatureCollection",
  "name": "Active Marine Hazard & Squall Zones",
  "features": [
    {
      "type": "Feature",
      "geometry": {
        "type": "Polygon",
        "coordinates": [
          [
            [80.350, 13.050],
            [80.500, 13.050],
            [80.500, 13.250],
            [80.350, 13.250],
            [80.350, 13.050]
          ]
        ]
      },
      "properties": {
        "id": "haz-chn-01",
        "name": "Chennai Offshore High Swell Sector",
        "type": "High Wave",
        "severity": "MEDIUM",
        "description": "Significant swell waves reaching 2.1m to 2.4m. Small craft advisory in effect."
      }
    },
    {
      "type": "Feature",
      "geometry": {
        "type": "Polygon",
        "coordinates": [
          [
            [72.600, 18.800],
            [72.800, 18.800],
            [72.800, 19.100],
            [72.600, 19.100],
            [72.600, 18.800]
          ]
        ]
      },
      "properties": {
        "id": "haz-mum-01",
        "name": "Mumbai Outer Deepwater Swell Corridor",
        "type": "Rough Sea",
        "severity": "MEDIUM",
        "description": "Southwesterly sea state with active 2.3m waves."
      }
    }
  ]
}
